NORAD_CAT_ID,OBJECT_NAME,OBJECT_TYPE,EPOCH,MEAN_MOTION,ECCENTRICITY,INCLINATION,RA_OF_ASC_NODE,ARG_OF_PERICENTER,MEAN_ANOMALY,BSTAR,MEAN_MOTION_DOT,MEAN_MOTION_DDOT,TLE_LINE0,TLE_LINE1,TLE_LINE2,SEMIMAJOR_AXIS,PERIOD,APOGEE,PERIGEE,DECAYED
51981.0,STARLINK-3635,PAYLOAD,2023-12-21 11:49:42,15.08847241,0.0001578,53.2177,71.7426,87.9622,272.1551,0.00030086,4.504e-05,0.0,0 STARLINK-3635,1 51981U 22025AB  23355.49284940  .00004504  00000-0  30086-3 0  9996,2 51981  53.2177  71.7426 0001578  87.9622 272.1551 15.08847241 99992,6917.858,95.437,540.815,538.632,0.0
51981.0,STARLINK-3635,PAYLOAD,2023-12-22 10:05:06,15.08844611,0.0001877,53.2178,67.5827,122.6066,237.5107,0.0001691,2.404e-05,0.0,0 STARLINK-3635,1 51981U 22025AB  23356.42021084  .00002404  00000-0  16910-3 0  9995,2 51981  53.2178  67.5827 0001877 122.6066 237.5107 15.08844611100131,6917.866,95.437,541.03,538.433,0.0
51981.0,STARLINK-3635,PAYLOAD,2023-12-23 11:31:17,15.08820345,0.0001895,53.2179,62.8272,109.2276,250.8921,0.00059462,9.183e-05,0.0,0 STARLINK-3635,1 51981U 22025AB  23357.48006395  .00009183  00000-0  59462-3 0  9990,2 51981  53.2179  62.8272 0001895 109.2276 250.8921 15.08820345100295,6917.94,95.439,541.116,538.495,0.0
51981.0,STARLINK-3635,PAYLOAD,2023-12-23 14:42:02,15.08848399,0.0001522,53.2174,62.2249,97.6118,262.5047,1.7252e-05,-1.3e-07,0.0,0 STARLINK-3635,1 51981U 22025AB  23357.61252993 -.00000013  00000-0  17252-4 0  9998,2 51981  53.2174  62.2249 0001522  97.6118 262.5047 15.08848399100311,6917.855,95.437,540.773,538.667,0.0
51981.0,STARLINK-3635,PAYLOAD,2023-12-24 11:22:03,15.08844706,0.000156,53.2176,58.3602,104.188,255.9285,5.952e-05,6.59e-06,0.0,0 STARLINK-3635,1 51981U 22025AB  23358.47365160  .00000659  00000-0  59520-4 0  9993,2 51981  53.2176  58.3602 0001560 104.1880 255.9285 15.08844706100446,6917.866,95.437,540.81,538.652,0.0
51981.0,STARLINK-3635,PAYLOAD,2023-12-25 11:12:50,15.08847493,0.0001525,53.2183,53.8983,88.5341,271.5826,0.00012728,1.739e-05,0.0,0 STARLINK-3635,1 51981U 22025AB  23359.46725046  .00001739  00000-0  12728-3 0  9994,2 51981  53.2183  53.8983 0001525  88.5341 271.5826 15.08847493 99497,6917.857,95.437,540.777,538.668,0.0
51981.0,STARLINK-3635,PAYLOAD,2023-12-26 03:06:42,15.08834451,0.0001482,53.2187,50.9341,77.683,282.4328,8.6955e-05,1.096e-05,0.0,0 STARLINK-3635,1 51981U 22025AB  23360.12966020  .00001096  00000-0  86955-4 0  9998,2 51981  53.2187  50.9341 0001482  77.6830 282.4328 15.08834451100694,6917.897,95.438,540.788,538.737,0.0
51981.0,STARLINK-3635,PAYLOAD,2023-12-26 11:03:38,15.08854,0.0001683,53.2174,49.4451,116.274,243.8426,-0.00027108,-4.601e-05,0.0,0 STARLINK-3635,1 51981U 22025AB  23360.46085943 -.00004601  00000-0 -27108-3 0  9992,2 51981  53.2174  49.4451 0001683 116.2740 243.8426 15.08854000 99642,6917.838,95.437,540.867,538.538,0.0
51981.0,STARLINK-3635,PAYLOAD,2023-12-27 10:54:24,15.08847885,0.0001579,53.2181,44.9854,83.2921,276.8251,5.9426e-05,6.58e-06,0.0,0 STARLINK-3635,1 51981U 22025AB  23361.45445531  .00000658  00000-0  59426-4 0  9990,2 51981  53.2181  44.9854 0001579  83.2921 276.8251 15.08847885 99796,6917.856,95.437,540.814,538.629,0.0
51981.0,STARLINK-3635,PAYLOAD,2023-12-28 02:48:16,15.08839806,0.0001843,53.219,42.0149,64.2328,295.8854,9.2471e-05,1.184e-05,0.0,0 STARLINK-3635,1 51981U 22025AB  23362.11686044  .00001184  00000-0  92471-4 0  9992,2 51981  53.2190  42.0149 0001843  64.2328 295.8854 15.08839806100995,6917.881,95.438,541.021,538.471,0.0
51981.0,STARLINK-3635,PAYLOAD,2023-12-28 09:09:49,15.08836242,0.0001773,53.2191,40.8231,66.1368,293.981,0.00012616,1.72e-05,0.0,0 STARLINK-3635,1 51981U 22025AB  23362.38182259  .00001720  00000-0  12616-3 0  9998,2 51981  53.2191  40.8231 0001773  66.1368 293.9810 15.08836242 99934,6917.892,95.438,540.983,538.53,0.0
51981.0,STARLINK-3635,PAYLOAD,2023-12-29 09:00:35,15.08851718,0.0001767,53.2199,36.3599,63.9856,296.1318,4.6581e-05,4.54e-06,0.0,0 STARLINK-3635,1 51981U 22025AB  23363.37541521  .00000454  00000-0  46581-4 0  9991,2 51981  53.2199  36.3599 0001767  63.9856 296.1318 15.08851718101183,6917.845,95.437,540.932,538.487,0.0
51981.0,STARLINK-3635,PAYLOAD,2023-12-30 07:15:59,15.08847046,0.0001782,53.2201,32.1978,114.9995,245.1183,8.7721e-05,1.109e-05,0.0,0 STARLINK-3635,1 51981U 22025AB  23364.30277407  .00001109  00000-0  87721-4 0  9993,2 51981  53.2201  32.1978 0001782 114.9995 245.1183 15.08847046101329,6917.859,95.437,540.957,538.491,0.0
51981.0,STARLINK-3635,PAYLOAD,2023-12-31 02:20:38,15.08833383,0.000132,53.2204,28.6308,84.4449,275.6693,2.4884e-05,1.08e-06,0.0,0 STARLINK-3635,1 51981U 22025AB  23365.09766634  .00000108  00000-0  24884-4 0  9994,2 51981  53.2204  28.6308 0001320  84.4449 275.6693 15.08833383101448,6917.901,95.438,540.679,538.852,0.0
51981.0,STARLINK-3635,PAYLOAD,2023-12-31 08:42:11,15.08811845,0.0001468,53.2195,27.4401,83.8827,276.2333,0.00044236,6.754e-05,0.0,0 STARLINK-3635,1 51981U 22025AB  23365.36262855  .00006754  00000-0  44236-3 0  9995,2 51981  53.2195  27.4401 0001468  83.8827 276.2333 15.08811845101485,6917.966,95.439,540.847,538.816,0.0
51981.0,STARLINK-3635,PAYLOAD,2024-01-01 11:43:44,15.0883931,0.0001482,53.2181,22.3842,96.2654,263.8507,-2.374e-05,-6.66e-06,0.0,0 STARLINK-3635,1 51981U 22025AB  24001.48870605 -.00000666  00000-0 -23740-4 0  9990,2 51981  53.2181  22.3842 0001482  96.2654 263.8507 15.08839310101656,6917.882,95.438,540.773,538.722,0.0
51981.0,STARLINK-3635,PAYLOAD,2024-01-01 22:51:26,15.08830537,0.0001475,53.2184,20.3023,96.0236,264.0924,5.1431e-05,5.3e-06,0.0,0 STARLINK-3635,1 51981U 22025AB  24001.95239033  .00000530  00000-0  51431-4 0  9992,2 51981  53.2184  20.3023 0001475  96.0236 264.0924 15.08830537101720,6917.909,95.438,540.795,538.754,0.0
51981.0,STARLINK-3635,PAYLOAD,2024-01-02 09:59:07,15.08840593,0.0001508,53.2181,18.2205,93.7765,266.3399,0.00011619,1.562e-05,0.0,0 STARLINK-3635,1 51981U 22025AB  24002.41606383  .00001562  00000-0  11619-3 0  9999,2 51981  53.2181  18.2205 0001508  93.7765 266.3399 15.08840593101794,6917.879,95.438,540.787,538.7,0.0
51981.0,STARLINK-3635,PAYLOAD,2024-01-02 22:42:13,15.08832774,0.000159,53.2181,15.842,102.1294,257.9877,5.7899e-05,6.33e-06,0.0,0 STARLINK-3635,1 51981U 22025AB  24002.94599071  .00000633  00000-0  57899-4 0  9991,2 51981  53.2181  15.8420 0001590 102.1294 257.9877 15.08832774101877,6917.902,95.438,540.867,538.668,0.0
51981.0,STARLINK-3635,PAYLOAD,2024-01-03 08:14:32,15.0883859,0.0001519,53.2183,14.0574,92.9523,267.1643,8.9953e-05,1.144e-05,0.0,0 STARLINK-3635,1 51981U 22025AB  24003.34342756  .00001144  00000-0  89953-4 0  9996,2 51981  53.2183  14.0574 0001519  92.9523 267.1643 15.08838590100833,6917.885,95.438,540.801,538.699,0.0
51981.0,STARLINK-3635,PAYLOAD,2024-01-04 00:08:23,15.08834766,0.0001507,53.2183,11.0836,98.2695,261.8468,3.9095e-05,3.34e-06,0.0,0 STARLINK-3635,1 51981U 22025AB  24004.00583287  .00000334  00000-0  39095-4 0  9998,2 51981  53.2183  11.0836 0001507  98.2695 261.8468 15.08834766102038,6917.896,95.438,540.804,538.719,0.0
51981.0,STARLINK-3635,PAYLOAD,2024-01-04 04:54:33,15.08838266,0.0001642,53.2182,10.1916,111.1272,248.9896,1.8278e-05,3e-08,0.0,0 STARLINK-3635,1 51981U 22025AB  24004.20455105  .00000003  00000-0  18278-4 0  9990,2 51981  53.2182  10.1916 0001642 111.1272 248.9896 15.08838266100962,6917.886,95.438,540.887,538.615,0.0
51981.0,STARLINK-3635,PAYLOAD,2024-01-04 06:29:56,15.08839573,0.0001579,53.2179,9.8943,103.601,256.5158,2.7071e-05,1.43e-06,0.0,0 STARLINK-3635,1 51981U 22025AB  24004.27079032  .00000143  00000-0  27071-4 0  9994,2 51981  53.2179   9.8943 0001579 103.6010 256.5158 15.08839573100977,6917.882,95.438,540.839,538.654,0.0
51981.0,STARLINK-3635,PAYLOAD,2024-01-05 04:45:20,15.08840755,0.0001592,53.2178,5.7313,104.6051,255.5117,5.345e-05,5.63e-06,0.0,0 STARLINK-3635,1 51981U 22025AB  24005.19814856  .00000563  00000-0  53450-4 0  9993,2 51981  53.2178   5.7313 0001592 104.6051 255.5117 15.08840755102210,6917.878,95.438,540.844,538.642,0.0
51981.0,STARLINK-3635,PAYLOAD,2024-01-05 09:31:29,15.08845371,0.0001571,53.2179,4.8388,104.1966,255.92,7.4964e-05,9.05e-06,0.0,0 STARLINK-3635,1 51981U 22025AB  24005.39686486  .00000905  00000-0  74964-4 0  9994,2 51981  53.2179   4.8388 0001571 104.1966 255.9200 15.08845371101147,6917.864,95.437,540.816,538.642,0.0
51981.0,STARLINK-3635,PAYLOAD,2024-01-06 09:22:16,15.08844405,0.0001576,53.2177,0.3774,101.3139,258.803,8.6274e-05,1.085e-05,0.0,0 STARLINK-3635,1 51981U 22025AB  24006.39046440  .00001085  00000-0  86274-4 0  9992,2 51981  53.2177   0.3774 0001576 101.3139 258.8030 15.08844405102399,6917.867,95.437,540.822,538.642,0.0
51981.0,STARLINK-3635,PAYLOAD,2024-01-07 04:26:54,15.08814201,0.0001727,53.2178,356.8076,115.4956,244.6215,0.0002507,3.701e-05,0.0,0 STARLINK-3635,1 51981U 22025AB  24007.18535513  .00003701  00000-0  25070-3 0  9997,2 51981  53.2178 356.8076 0001727 115.4956 244.6215 15.08814201102518,6917.959,95.439,541.019,538.63,0.0
51981.0,STARLINK-3635,PAYLOAD,2024-01-07 06:02:17,15.0884037,0.0001468,53.2177,356.5103,97.0347,263.0812,-5.1459e-05,-1.107e-05,0.0,0 STARLINK-3635,1 51981U 22025AB  24007.25159230 -.00001107  00000-0 -51459-4 0  9994,2 51981  53.2177 356.5103 0001468  97.0347 263.0812 15.08840370102521,6917.879,95.438,540.76,538.729,0.0
51981.0,STARLINK-3635,PAYLOAD,2024-01-07 21:56:08,15.08837348,0.0001674,53.2181,353.5352,104.5273,255.5905,1.0678e-05,-1.18e-06,0.0,0 STARLINK-3635,1 51981U 22025AB  24007.91399290 -.00000118  00000-0  10678-4 0  9997,2 51981  53.2181 353.5352 0001674 104.5273 255.5905 15.08837348101529,6917.888,95.438,540.912,538.595,0.0
51981.0,STARLINK-3635,PAYLOAD,2024-01-08 09:03:50,15.08844857,0.0001535,53.2186,351.454,92.8183,267.2985,1.2248e-05,-9.3e-07,0.0,0 STARLINK-3635,1 51981U 22025AB  24008.37766823 -.00000093  00000-0  12248-4 0  9995,2 51981  53.2186 351.4540 0001535  92.8183 267.2985 15.08844857102695,6917.866,95.437,540.792,538.669,0.0
